{
  "type": "FeatureCollection",
  "features": [
    {
      "type": "Feature",
      "properties": {
        "norad_id": 36828,
        "name": "BEIDOU-2 IGSO-1 (C06)",
        "group": "beidou",
        "lat": -2.490788280963144,
        "lon": -13.677385338124429,
        "alt_km": 35599.56406280907,
        "timestamp": "2025-12-24T09:46:31.269171+00:00",
        "meta_object_name": "BEIDOU-2 IGSO-1 (C06)",
        "meta_object_id": "2010-036A",
        "meta_epoch": "2025-12-20T21:47:26.739168",
        "meta_mean_motion": 1.00282395,
        "meta_eccentricity": 0.0051798,
        "meta_inclination": 54.2882,
        "meta_ra_of_asc_node": 164.5739,
        "meta_arg_of_pericenter": 215.2932,
        "meta_mean_anomaly": 144.6604,
        "meta_ephemeris_type": 0,
        "meta_classification_type": "U",
        "meta_norad_cat_id": 36828,
        "meta_element_set_no": 999,
        "meta_rev_at_epoch": 5631,
        "meta_bstar": 0,
        "meta_mean_motion_dot": -5.5e-07,
        "meta_mean_motion_ddot": 0,
        "tle_line1": "1 36828U 10036A   25354.90794837 -.00000055  00000+0  00000+0 0  9992",
        "tle_line2": "2 36828  54.2882 164.5739 0051798 215.2932 144.6604  1.00282395 56317"
      },
      "geometry": {
        "type": "Point",
        "coordinates": [
          -13.677385338124429,
          -2.490788280963144
        ]
      }
    },
    {
      "type": "Feature",
      "properties": {
        "norad_id": 37210,
        "name": "BEIDOU-2 G4 (C04)",
        "group": "beidou",
        "lat": -1.5935326537180279,
        "lon": 40.014853982693566,
        "alt_km": 35818.07918635465,
        "timestamp": "2025-12-24T09:46:31.269194+00:00",
        "meta_object_name": "BEIDOU-2 G4 (C04)",
        "meta_object_id": "2010-057A",
        "meta_epoch": "2025-12-24T05:12:23.450976",
        "meta_mean_motion": 1.00271665,
        "meta_eccentricity": 0.00104,
        "meta_inclination": 3.2112,
        "meta_ra_of_asc_node": 69.8951,
        "meta_arg_of_pericenter": 193.7967,
        "meta_mean_anomaly": 67.4859,
        "meta_ephemeris_type": 0,
        "meta_classification_type": "U",
        "meta_norad_cat_id": 37210,
        "meta_element_set_no": 999,
        "meta_rev_at_epoch": 5553,
        "meta_bstar": 0,
        "meta_mean_motion_dot": -9.2e-07,
        "meta_mean_motion_ddot": 0,
        "tle_line1": "1 37210U 10057A   25358.21693809 -.00000092  00000+0  00000+0 0  9997",
        "tle_line2": "2 37210   3.2112  69.8951 0010400 193.7967  67.4859  1.00271665 55534"
      },
      "geometry": {
        "type": "Point",
        "coordinates": [
          40.014853982693566,
          -1.5935326537180279
        ]
      }
    },
    {
      "type": "Feature",
      "properties": {
        "norad_id": 37256,
        "name": "BEIDOU-2 IGSO-2 (C07)",
        "group": "beidou",
        "lat": 45.33924875797984,
        "lon": -19.888405925339256,
        "alt_km": 35940.56371318393,
        "timestamp": "2025-12-24T09:46:31.269209+00:00",
        "meta_object_name": "BEIDOU-2 IGSO-2 (C07)",
        "meta_object_id": "2010-068A",
        "meta_epoch": "2025-12-23T17:03:51.690816",
        "meta_mean_motion": 1.00283101,
        "meta_eccentricity": 0.00485637,
        "meta_inclination": 47.8659,
        "meta_ra_of_asc_node": 274.0149,
        "meta_arg_of_pericenter": 216.3394,
        "meta_mean_anomaly": 326.1369,
        "meta_ephemeris_type": 0,
        "meta_classification_type": "U",
        "meta_norad_cat_id": 37256,
        "meta_element_set_no": 999,
        "meta_rev_at_epoch": 5503,
        "meta_bstar": 0,
        "meta_mean_motion_dot": -1.88e-06,
        "meta_mean_motion_ddot": 0,
        "tle_line1": "1 37256U 10068A   25357.71101494 -.00000188  00000+0  00000+0 0  9993",
        "tle_line2": "2 37256  47.8659 274.0149 0048563 216.3394 326.1369  1.00283101 55034"
      },
      "geometry": {
        "type": "Point",
        "coordinates": [
          -19.888405925339256,
          45.33924875797984
        ]
      }
    },
    {
      "type": "Feature",
      "properties": {
        "norad_id": 37384,
        "name": "BEIDOU-2 IGSO-3 (C08)",
        "group": "beidou",
        "lat": -46.01559612126387,
        "lon": 8.653119841192472,
        "alt_km": 35861.765432365835,
        "timestamp": "2025-12-24T09:46:31.269222+00:00",
        "meta_object_name": "BEIDOU-2 IGSO-3 (C08)",
        "meta_object_id": "2011-013A",
        "meta_epoch": "2025-12-23T13:38:13.451136",
        "meta_mean_motion": 1.00268394,
        "meta_eccentricity": 0.00353473,
        "meta_inclination": 62.1571,
        "meta_ra_of_asc_node": 41.8137,
        "meta_arg_of_pericenter": 187.6149,
        "meta_mean_anomaly": 174.7745,
        "meta_ephemeris_type": 0,
        "meta_classification_type": "U",
        "meta_norad_cat_id": 37384,
        "meta_element_set_no": 999,
        "meta_rev_at_epoch": 5390,
        "meta_bstar": 0,
        "meta_mean_motion_dot": -1.6e-06,
        "meta_mean_motion_ddot": 0,
        "tle_line1": "1 37384U 11013A   25357.56821124 -.00000160  00000+0  00000+0 0  9998",
        "tle_line2": "2 37384  62.1571  41.8137 0035347 187.6149 174.7745  1.00268394 53906"
      },
      "geometry": {
        "type": "Point",
        "coordinates": [
          8.653119841192472,
          -46.01559612126387
        ]
      }
    },
    {
      "type": "Feature",
      "properties": {
        "norad_id": 37763,
        "name": "BEIDOU-2 IGSO-4 (C09)",
        "group": "beidou",
        "lat": 11.515271879860006,
        "lon": -21.113736242733218,
        "alt_km": 35503.28516463185,
        "timestamp": "2025-12-24T09:46:31.269234+00:00",
        "meta_object_name": "BEIDOU-2 IGSO-4 (C09)",
        "meta_object_id": "2011-038A",
        "meta_epoch": "2025-12-21T10:06:26.864064",
        "meta_mean_motion": 1.00280083,
        "meta_eccentricity": 0.01491557,
        "meta_inclination": 54.5854,
        "meta_ra_of_asc_node": 167.2693,
        "meta_arg_of_pericenter": 230.0944,
        "meta_mean_anomaly": 299.1265,
        "meta_ephemeris_type": 0,
        "meta_classification_type": "U",
        "meta_norad_cat_id": 37763,
        "meta_element_set_no": 999,
        "meta_rev_at_epoch": 5286,
        "meta_bstar": 0,
        "meta_mean_motion_dot": 5.9e-07,
        "meta_mean_motion_ddot": 0,
        "tle_line1": "1 37763U 11038A   25355.42114426  .00000059  00000+0  00000+0 0  9995",
        "tle_line2": "2 37763  54.5854 167.2693 0149155 230.0944 299.1265  1.00280083 52867"
      },
      "geometry": {
        "type": "Point",
        "coordinates": [
          -21.113736242733218,
          11.515271879860006
        ]
      }
    },
    {
      "type": "Feature",
      "properties": {
        "norad_id": 37948,
        "name": "BEIDOU-2 IGSO-5 (C10)",
        "group": "beidou",
        "lat": 39.73694697807861,
        "lon": -37.901803172802325,
        "alt_km": 36218.17234007254,
        "timestamp": "2025-12-24T09:46:31.269247+00:00",
        "meta_object_name": "BEIDOU-2 IGSO-5 (C10)",
        "meta_object_id": "2011-073A",
        "meta_epoch": "2025-12-23T15:38:27.014784",
        "meta_mean_motion": 1.00288757,
        "meta_eccentricity": 0.01097443,
        "meta_inclination": 47.9999,
        "meta_ra_of_asc_node": 273.7252,
        "meta_arg_of_pericenter": 222.2004,
        "meta_mean_anomaly": 284.7176,
        "meta_ephemeris_type": 0,
        "meta_classification_type": "U",
        "meta_norad_cat_id": 37948,
        "meta_element_set_no": 999,
        "meta_rev_at_epoch": 5137,
        "meta_bstar": 0,
        "meta_mean_motion_dot": -1.38e-06,
        "meta_mean_motion_ddot": 0,
        "tle_line1": "1 37948U 11073A   25357.65170156 -.00000138  00000+0  00000+0 0  9997",
        "tle_line2": "2 37948  47.9999 273.7252 0109744 222.2004 284.7176  1.00288757 51374"
      },
      "geometry": {
        "type": "Point",
        "coordinates": [
          -37.901803172802325,
          39.73694697807861
        ]
      }
    },
    {
      "type": "Feature",
      "properties": {
        "norad_id": 38091,
        "name": "BEIDOU-2 G5 (C05)",
        "group": "beidou",
        "lat": -2.346695480879074,
        "lon": -61.50509064187192,
        "alt_km": 35731.841003281326,
        "timestamp": "2025-12-24T09:46:31.269276+00:00",
        "meta_object_name": "BEIDOU-2 G5 (C05)",
        "meta_object_id": "2012-008A",
        "meta_epoch": "2025-12-24T02:18:38.733696",
        "meta_mean_motion": 1.00269743,
        "meta_eccentricity": 0.0013065,
        "meta_inclination": 3.1357,
        "meta_ra_of_asc_node": 70.6677,
        "meta_arg_of_pericenter": 232.1361,
        "meta_mean_anomaly": 243.4747,
        "meta_ephemeris_type": 0,
        "meta_classification_type": "U",
        "meta_norad_cat_id": 38091,
        "meta_element_set_no": 999,
        "meta_rev_at_epoch": 5061,
        "meta_bstar": 0,
        "meta_mean_motion_dot": 7.7e-07,
        "meta_mean_motion_ddot": 0,
        "tle_line1": "1 38091U 12008A   25358.09628164  .00000077  00000+0  00000+0 0  9993",
        "tle_line2": "2 38091   3.1357  70.6677 0013065 232.1361 243.4747  1.00269743 50613"
      },
      "geometry": {
        "type": "Point",
        "coordinates": [
          -61.50509064187192,
          -2.346695480879074
        ]
      }
    }
  ]
}